{
  "type": "FeatureCollection",
  "features": [
    {
      "type": "Feature",
      "properties": {
        "norad_id": 66676,
        "name": "TRANSPORTER-15 L",
        "group": "last-30-days",
        "lat": -68.50252672063426,
        "lon": 84.78566719668555,
        "alt_km": 519.7861557354399,
        "timestamp": "2025-12-19T18:58:40.326930+00:00",
        "meta_object_name": "TRANSPORTER-15 L",
        "meta_object_id": "2025-276L",
        "meta_epoch": "2025-12-19T03:27:05.681664",
        "meta_mean_motion": 15.16750475,
        "meta_eccentricity": 0.00048204,
        "meta_inclination": 97.4404,
        "meta_ra_of_asc_node": 64.7724,
        "meta_arg_of_pericenter": 273.9183,
        "meta_mean_anomaly": 86.1499,
        "meta_ephemeris_type": 0,
        "meta_classification_type": "U",
        "meta_norad_cat_id": 66676,
        "meta_element_set_no": 999,
        "meta_rev_at_epoch": 309,
        "meta_bstar": 0.00026862885,
        "meta_mean_motion_dot": 5.205e-05,
        "meta_mean_motion_ddot": 0,
        "tle_line1": "1 66676U 25276L   25353.14381576  .00005205  00000+0  26863-3 0  9995",
        "tle_line2": "2 66676  97.4404  64.7724 0004820 273.9183  86.1499 15.16750475  3098"
      },
      "geometry": {
        "type": "Point",
        "coordinates": [
          84.78566719668555,
          -68.50252672063426
        ]
      }
    },
    {
      "type": "Feature",
      "properties": {
        "norad_id": 66677,
        "name": "TRANSPORTER-15 M",
        "group": "last-30-days",
        "lat": -34.16583175699353,
        "lon": 70.50840711927026,
        "alt_km": 518.024655590888,
        "timestamp": "2025-12-19T18:58:40.326942+00:00",
        "meta_object_name": "TRANSPORTER-15 M",
        "meta_object_id": "2025-276M",
        "meta_epoch": "2025-12-18T03:33:45.630720",
        "meta_mean_motion": 15.17368084,
        "meta_eccentricity": 0.00039638,
        "meta_inclination": 97.44,
        "meta_ra_of_asc_node": 63.8069,
        "meta_arg_of_pericenter": 286.6356,
        "meta_mean_anomaly": 73.4442,
        "meta_ephemeris_type": 0,
        "meta_classification_type": "U",
        "meta_norad_cat_id": 66677,
        "meta_element_set_no": 999,
        "meta_rev_at_epoch": 294,
        "meta_bstar": 0.00056362263,
        "meta_mean_motion_dot": 0.00011198,
        "meta_mean_motion_ddot": 0,
        "tle_line1": "1 66677U 25276M   25352.14844480  .00011198  00000+0  56362-3 0  9998",
        "tle_line2": "2 66677  97.4400  63.8069 0003963 286.6356  73.4442 15.17368084  2949"
      },
      "geometry": {
        "type": "Point",
        "coordinates": [
          70.50840711927026,
          -34.16583175699353
        ]
      }
    },
    {
      "type": "Feature",
      "properties": {
        "norad_id": 66678,
        "name": "TRANSPORTER-15 N",
        "group": "last-30-days",
        "lat": -65.75809532505735,
        "lon": 82.2951149558522,
        "alt_km": 519.8368846154135,
        "timestamp": "2025-12-19T18:58:40.326954+00:00",
        "meta_object_name": "TRANSPORTER-15 N",
        "meta_object_id": "2025-276N",
        "meta_epoch": "2025-12-19T03:26:21.705792",
        "meta_mean_motion": 15.16805932,
        "meta_eccentricity": 0.00048366,
        "meta_inclination": 97.4434,
        "meta_ra_of_asc_node": 64.7813,
        "meta_arg_of_pericenter": 265.8098,
        "meta_mean_anomaly": 94.2582,
        "meta_ephemeris_type": 0,
        "meta_classification_type": "U",
        "meta_norad_cat_id": 66678,
        "meta_element_set_no": 999,
        "meta_rev_at_epoch": 309,
        "meta_bstar": 0.00029751134,
        "meta_mean_motion_dot": 5.782e-05,
        "meta_mean_motion_ddot": 0,
        "tle_line1": "1 66678U 25276N   25353.14330678  .00005782  00000+0  29751-3 0  9993",
        "tle_line2": "2 66678  97.4434  64.7813 0004836 265.8098  94.2582 15.16805932  3096"
      },
      "geometry": {
        "type": "Point",
        "coordinates": [
          82.2951149558522,
          -65.75809532505735
        ]
      }
    },
    {
      "type": "Feature",
      "properties": {
        "norad_id": 66679,
        "name": "TRANSPORTER-15 P",
        "group": "last-30-days",
        "lat": -70.66002916226914,
        "lon": 87.25211640370384,
        "alt_km": 520.165236282437,
        "timestamp": "2025-12-19T18:58:40.326964+00:00",
        "meta_object_name": "TRANSPORTER-15 P",
        "meta_object_id": "2025-276P",
        "meta_epoch": "2025-12-19T00:17:38.357664",
        "meta_mean_motion": 15.16657512,
        "meta_eccentricity": 0.00046254,
        "meta_inclination": 97.4377,
        "meta_ra_of_asc_node": 64.6367,
        "meta_arg_of_pericenter": 275.474,
        "meta_mean_anomaly": 84.5966,
        "meta_ephemeris_type": 0,
        "meta_classification_type": "U",
        "meta_norad_cat_id": 66679,
        "meta_element_set_no": 999,
        "meta_rev_at_epoch": 307,
        "meta_bstar": 0.00016660955,
        "meta_mean_motion_dot": 3.194e-05,
        "meta_mean_motion_ddot": 0,
        "tle_line1": "1 66679U 25276P   25353.01224951  .00003194  00000+0  16661-3 0  9997",
        "tle_line2": "2 66679  97.4377  64.6367 0004625 275.4740  84.5966 15.16657512  3078"
      },
      "geometry": {
        "type": "Point",
        "coordinates": [
          87.25211640370384,
          -70.66002916226914
        ]
      }
    },
    {
      "type": "Feature",
      "properties": {
        "norad_id": 66680,
        "name": "TRANSPORTER-15 Q",
        "group": "last-30-days",
        "lat": -64.58793391887654,
        "lon": 81.38512733571606,
        "alt_km": 519.995212390586,
        "timestamp": "2025-12-19T18:58:40.326974+00:00",
        "meta_object_name": "TRANSPORTER-15 Q",
        "meta_object_id": "2025-276Q",
        "meta_epoch": "2025-12-19T05:01:01.041312",
        "meta_mean_motion": 15.16779076,
        "meta_eccentricity": 0.00048152,
        "meta_inclination": 97.4422,
        "meta_ra_of_asc_node": 64.8438,
        "meta_arg_of_pericenter": 264.6307,
        "meta_mean_anomaly": 95.4377,
        "meta_ephemeris_type": 0,
        "meta_classification_type": "U",
        "meta_norad_cat_id": 66680,
        "meta_element_set_no": 999,
        "meta_rev_at_epoch": 310,
        "meta_bstar": 0.00013132848,
        "meta_mean_motion_dot": 2.512e-05,
        "meta_mean_motion_ddot": 0,
        "tle_line1": "1 66680U 25276Q   25353.20903983  .00002512  00000+0  13133-3 0  9993",
        "tle_line2": "2 66680  97.4422  64.8438 0004815 264.6307  95.4377 15.16779076  3103"
      },
      "geometry": {
        "type": "Point",
        "coordinates": [
          81.38512733571606,
          -64.58793391887654
        ]
      }
    },
    {
      "type": "Feature",
      "properties": {
        "norad_id": 66681,
        "name": "TRANSPORTER-15 R",
        "group": "last-30-days",
        "lat": -43.951892406831455,
        "lon": 72.63647475870005,
        "alt_km": 517.539332462462,
        "timestamp": "2025-12-19T18:58:40.326984+00:00",
        "meta_object_name": "TRANSPORTER-15 R",
        "meta_object_id": "2025-276R",
        "meta_epoch": "2025-12-19T03:20:45.294432",
        "meta_mean_motion": 15.17329281,
        "meta_eccentricity": 0.00049615,
        "meta_inclination": 97.4349,
        "meta_ra_of_asc_node": 64.7648,
        "meta_arg_of_pericenter": 291.7381,
        "meta_mean_anomaly": 68.3324,
        "meta_ephemeris_type": 0,
        "meta_classification_type": "U",
        "meta_norad_cat_id": 66681,
        "meta_element_set_no": 999,
        "meta_rev_at_epoch": 309,
        "meta_bstar": 0.00063872927,
        "meta_mean_motion_dot": 0.00012689,
        "meta_mean_motion_ddot": 0,
        "tle_line1": "1 66681U 25276R   25353.13941313  .00012689  00000+0  63873-3 0  9997",
        "tle_line2": "2 66681  97.4349  64.7648 0004961 291.7381  68.3324 15.17329281  3098"
      },
      "geometry": {
        "type": "Point",
        "coordinates": [
          72.63647475870005,
          -43.951892406831455
        ]
      }
    },
    {
      "type": "Feature",
      "properties": {
        "norad_id": 66682,
        "name": "TRANSPORTER-15 S",
        "group": "last-30-days",
        "lat": -53.02675722170129,
        "lon": 75.4365636414873,
        "alt_km": 519.7009911837476,
        "timestamp": "2025-12-19T18:58:40.326994+00:00",
        "meta_object_name": "TRANSPORTER-15 S",
        "meta_object_id": "2025-276S",
        "meta_epoch": "2025-12-19T04:58:01.424352",
        "meta_mean_motion": 15.17069969,
        "meta_eccentricity": 0.00047655,
        "meta_inclination": 97.4471,
        "meta_ra_of_asc_node": 64.8569,
        "meta_arg_of_pericenter": 255.9362,
        "meta_mean_anomaly": 104.1341,
        "meta_ephemeris_type": 0,
        "meta_classification_type": "U",
        "meta_norad_cat_id": 66682,
        "meta_element_set_no": 999,
        "meta_rev_at_epoch": 310,
        "meta_bstar": 0.00038886534,
        "meta_mean_motion_dot": 7.637e-05,
        "meta_mean_motion_ddot": 0,
        "tle_line1": "1 66682U 25276S   25353.20696093  .00007637  00000+0  38887-3 0  9992",
        "tle_line2": "2 66682  97.4471  64.8569 0004765 255.9362 104.1341 15.17069969  3105"
      },
      "geometry": {
        "type": "Point",
        "coordinates": [
          75.4365636414873,
          -53.02675722170129
        ]
      }
    }
  ]
}